OBJECT_NAME,OBJECT_ID,EPOCH,MEAN_MOTION,ECCENTRICITY,INCLINATION,RA_OF_ASC_NODE,ARG_OF_PERICENTER,MEAN_ANOMALY,EPHEMERIS_TYPE,CLASSIFICATION_TYPE,NORAD_CAT_ID,ELEMENT_SET_NO,REV_AT_EPOCH,BSTAR,MEAN_MOTION_DOT,MEAN_MOTION_DDOT
STARLINK-37977,2026-145L,2026-07-09T21:23:51.759456,15.75253257,.00009398,97.2853,37.4964,66.5603,293.5761,0,U,69687,999,234,.16773458E-2,.258488E-2,0
STARLINK-37908,2026-145M,2026-07-09T22:52:17.642208,15.75192303,.00013379,97.2861,37.5669,69.8088,290.3321,0,U,69688,999,235,.15568983E-2,.238725E-2,0
STARLINK-37979,2026-145N,2026-07-10T11:03:37.162656,15.75192418,.00014653,97.2843,38.0997,74.5108,285.6319,0,U,69689,999,243,.10100921E-2,.153282E-2,0
STARLINK-37940,2026-145P,2026-07-10T09:30:36.824256,15.75213082,.0001357,97.2852,38.0349,94.8207,265.3213,0,U,69690,999,242,.68591602E-3,.103531E-2,0
STARLINK-37961,2026-145Q,2026-07-10T09:26:02.645952,15.75225201,.00015051,97.2856,38.0386,71.7040,288.4389,0,U,69691,999,242,.91113156E-3,.138203E-2,0
STARLINK-37787,2026-145R,2026-07-10T15:28:54.876576,15.75219459,.00016715,97.2867,38.3081,45.5788,314.5614,0,U,69692,999,246,.74235829E-3,.112208E-2,0
STARLINK-37962,2026-145S,2026-07-10T12:23:24.673920,15.75284185,.00015192,97.2847,38.1773,114.4474,245.6950,0,U,69693,999,244,.14083702E-2,.216222E-2,0
STARLINK-37953,2026-145T,2026-07-10T09:24:31.087872,15.75227047,.00014998,97.2854,38.0400,67.4173,292.7251,0,U,69694,999,242,.8865752E-3,.134426E-2,0
STARLINK-37926,2026-145U,2026-07-10T08:00:03.000384,15.75235867,.0001517,97.2855,37.9823,98.6218,293.1084,0,U,69695,999,364,-.87824618E-3,-.129423E-2,0
STARLINK-37959,2026-145V,2026-07-10T00:13:06.135456,15.75229874,.00016176,97.2858,37.6433,72.8018,287.3425,0,U,69696,999,236,.10980334E-2,.167184E-2,0
STARLINK-37976,2026-145W,2026-07-10T12:20:52.120032,15.75247843,.00018264,97.2846,38.1801,105.0422,255.1046,0,U,69697,999,244,.99656305E-3,.151562E-2,0
STARLINK-37912,2026-145X,2026-07-10T12:19:20.778816,15.75274921,.00013988,97.2857,38.1821,100.6345,259.5077,0,U,69698,999,244,.11151253E-2,.170178E-2,0
STARLINK-37974,2026-145Y,2026-07-10T12:18:20.645280,15.75262677,.00010759,97.2847,38.1836,83.5545,276.5843,0,U,69699,999,244,.1014003E-2,.154363E-2,0
STARLINK-37955,2026-145Z,2026-07-10T13:46:14.877120,15.75240281,.00018475,97.2854,38.2529,111.4348,248.7114,0,U,69700,999,245,.10252027E-2,.155952E-2,0
STRIX-8,2026-146A,2026-07-10T13:43:02.887680,15.04409760,.00078971,41.9901,38.7057,351.5426,8.5266,0,U,69701,999,208,.21735157E-3,.2899E-4,0
ELECTRON R/B,2026-146B,2026-07-10T14:20:05.873280,15.71446067,.01817392,42.0746,30.9098,347.8869,11.7646,0,U,69702,999,218,.104229E-2,.389634E-2,.53137334E-4
ELECTRON KICK STAGE R/B,2026-146C,2026-07-10T07:13:55.085664,15.04919215,.00097461,41.9885,40.1382,351.0918,8.9735,0,U,69703,999,204,.19299774E-3,.259E-4,0
STARLINK-38055,2026-147A,2026-07-10T11:38:00.886272,15.81581202,.00012485,97.2846,227.5983,1.7829,358.3444,0,U,69704,999,311,.1968169E-2,.409156E-2,0
STARLINK-37898,2026-147B,2026-07-10T11:37:06.942432,15.80949510,.00024031,97.2855,227.5992,359.1033,1.0230,0,U,69705,999,311,.20615926E-2,.41674E-2,0
STARLINK-37970,2026-147C,2026-07-09T20:24:29.904768,15.80939416,.00006057,97.2868,226.9285,24.7562,335.3736,0,U,69706,999,301,.18145715E-2,.364423E-2,0
STARLINK-37975,2026-147D,2026-07-09T12:47:38.868000,15.80818054,.0000848,97.2829,226.5973,136.0148,224.1188,0,U,69707,999,296,.39287975E-3,.75775E-3,0
STARLINK-37972,2026-147E,2026-07-09T20:22:19.960896,15.81017356,.00017352,97.2860,226.9336,214.2422,145.8735,0,U,69708,999,301,.15016779E-2,.300376E-2,0
STARLINK-37963,2026-147F,2026-07-10T00:54:42.926976,15.80897501,.00021437,97.2838,227.1314,107.5808,252.5695,0,U,69709,999,304,.15537689E-2,.309433E-2,0
STARLINK-37969,2026-147G,2026-07-10T11:31:42.993408,15.80834841,.00019758,97.2858,227.6032,62.8953,297.2516,0,U,69710,999,311,.11628523E-2,.22874E-2,0
STARLINK-37956,2026-147H,2026-07-10T14:32:56.397984,15.80866372,.00011305,97.2847,227.7394,95.9104,264.2293,0,U,69711,999,313,.9065587E-3,.177491E-2,0
STARLINK-38043,2026-147J,2026-07-10T08:00:03.000384,15.80838101,.00011413,97.2849,227.4527,108.7453,144.0213,0,U,69712,999,296,-.28368388E-3,-.54198E-3,0
STARLINK-38020,2026-147K,2026-07-10T12:59:24.651456,15.81402224,.0001138,97.2859,227.6765,132.5760,227.5605,0,U,69713,999,312,.14553071E-2,.296122E-2,0
STARLINK-38059,2026-147L,2026-07-10T08:00:03.000384,15.80847849,.00008558,97.2849,227.4570,93.5663,167.7436,0,U,69714,999,296,-.33840668E-3,-.64576E-3,0
STARLINK-38061,2026-147M,2026-07-10T09:55:09.151968,15.80865474,.00015783,97.2851,227.5432,36.1176,324.0198,0,U,69715,999,310,.11123024E-2,.218842E-2,0
STARLINK-38060,2026-147N,2026-07-10T09:55:09.466464,15.80949661,.00027629,97.2885,227.5429,58.0194,302.1342,0,U,69716,999,310,.25606446E-2,.52416E-2,0
STARLINK-38040,2026-147P,2026-07-10T12:54:39.781152,15.81746138,.00023419,97.2857,227.6785,153.0975,207.0416,0,U,69717,999,312,.15448831E-2,.320256E-2,0
STARLINK-37989,2026-147Q,2026-07-10T12:53:35.555712,15.81725931,.00017604,97.2849,227.6798,163.9316,196.2009,0,U,69718,999,312,.15132996E-2,.313152E-2,0
STARLINK-38039,2026-147R,2026-07-10T08:00:03.000384,15.80851499,.00003667,97.2850,227.4652,112.1744,170.5022,0,U,69719,999,305,-.34482194E-3,-.65797E-3,0
STARLINK-38003,2026-147S,2026-07-10T12:50:03.830784,15.82832167,.00013417,97.2839,227.6822,296.1572,63.9559,0,U,69720,999,312,.22496698E-2,.500765E-2,0
STARLINK-38014,2026-147T,2026-07-10T12:50:18.930048,15.81772547,.00025563,97.2841,227.6822,154.2953,205.8444,0,U,69721,999,312,.15864875E-2,.329644E-2,0
STARLINK-37915,2026-147U,2026-07-10T08:00:03.000384,15.80848892,.00007821,97.2849,227.4705,79.8886,215.6105,0,U,69722,999,305,-.31324161E-3,-.5982E-3,0
STARLINK-38007,2026-147V,2026-07-10T12:52:42.441312,15.81733658,.00015411,97.2844,227.6795,160.1319,200.0010,0,U,69723,999,312,.15291537E-2,.316675E-2,0
STARLINK-38008,2026-147W,2026-07-10T12:47:32.500320,15.81338531,.00032958,97.2864,227.6873,179.5200,180.6073,0,U,69724,999,312,.11974608E-2,.241424E-2,0
STARLINK-38021,2026-147X,2026-07-10T12:45:59.069952,15.81657053,.00005957,97.2794,227.6819,189.1235,171.0023,0,U,69725,999,312,.12718032E-2,.260745E-2,0
STARLINK-38015,2026-147Y,2026-07-10T14:00:04.000032,15.80838368,.00010225,97.2853,227.7426,106.7655,187.6439,0,U,69726,999,309,.75870944E-4,.1443E-3,0
STARLINK-38010,2026-147Z,2026-07-10T14:00:04.000032,15.75255791,.0000962,97.2855,227.7276,112.6829,145.9843,0,U,69727,999,309,-.9144967E-3,-.134782E-2,0
SXM-11,2026-148A,2026-07-10T12:51:41.701248,1.00470996,.00012474,0.1266,266.2960,42.3360,51.3556,0,U,69728,999,27,0,-.3E-7,0
HAIYANG-2E,2026-149A,2026-07-09T17:14:53.940768,13.79315692,.00014323,99.3447,197.7174,109.3901,250.7406,0,U,69737,999,107,-.12544551E-3,-.173E-5,0
CZ-4B R/B,2026-149B,2026-07-10T08:44:04.458336,14.30066392,.01983535,99.3216,199.0375,344.0056,15.4919,0,U,69738,999,144,.40181542E-4,.71E-6,0
STARLINK-38033,2026-150A,2026-07-10T14:00:04.000032,15.80865253,.00013824,97.2843,29.6804,78.4934,242.9656,0,U,69739,999,255,-.33671224E-3,-.6431E-3,0
STARLINK-38076,2026-150B,2026-07-10T14:00:04.000032,15.75208173,.00009617,97.2845,29.6742,57.7460,251.3463,0,U,69740,999,255,-.27895792E-3,-.41567E-3,0
STARLINK-38074,2026-150C,2026-07-10T14:00:04.000032,15.80876923,.00014671,97.2840,29.6857,70.3212,265.8103,0,U,69741,999,255,-.50648067E-3,-.96364E-3,0
STARLINK-38041,2026-150D,2026-07-10T14:00:04.000032,15.80847912,.00009691,97.2840,29.6885,91.3542,248.7269,0,U,69742,999,255,-.22957096E-3,-.43957E-3,0
STARLINK-38087,2026-150E,2026-07-10T14:00:04.000032,15.80867928,.00013225,97.2838,29.6897,87.3811,257.3392,0,U,69743,999,255,-.31113464E-3,-.59475E-3,0
STARLINK-38078,2026-150F,2026-07-10T14:00:04.000032,15.80873426,.0001062,97.2839,29.6910,75.0452,273.9469,0,U,69744,999,255,-.48905863E-3,-.93069E-3,0
STARLINK-38047,2026-150G,2026-07-10T14:00:04.000032,15.80855895,.00018643,97.2840,29.6931,67.3458,286.2014,0,U,69745,999,255,-.26103065E-3,-.49951E-3,0
STARLINK-38046,2026-150H,2026-07-10T14:00:04.000032,15.80862803,.00013594,97.2838,29.6977,86.8649,277.6091,0,U,69746,999,255,-.44076775E-3,-.83943E-3,0
STARLINK-38067,2026-150J,2026-07-10T14:00:04.000032,15.79026906,.00016083,97.2839,29.7002,76.5539,292.3267,0,U,69747,999,255,-.12624415E-1,-.1940996E-1,0
STARLINK-37988,2026-150K,2026-07-10T14:00:04.000032,15.80503081,.00011459,97.2840,29.7018,96.9146,276.2147,0,U,69748,999,255,-.11714041E-1,-.1928454E-1,0
STARLINK-37987,2026-150L,2026-07-10T14:00:04.000032,15.80870724,.00012913,97.2842,29.7041,73.6268,304.5308,0,U,69749,999,255,-.45255699E-3,-.86193E-3,0
STARLINK-38037,2026-150M,2026-07-10T14:00:04.000032,15.80856061,.00010383,97.2837,29.7097,88.7781,301.6960,0,U,69750,999,255,-.25945228E-3,-.49647E-3,0
STARLINK-38049,2026-150N,2026-07-10T14:00:04.000032,15.80853992,.00012063,97.2838,29.7119,94.6794,301.5854,0,U,69751,999,255,-.35700629E-3,-.68112E-3,0
STARLINK-38029,2026-150P,2026-07-10T14:00:04.000032,15.80847590,.00011389,97.2842,29.7268,95.5487,333.4158,0,U,69752,999,255,-.19813614E-3,-.37983E-3,0
STARLINK-37965,2026-150Q,2026-07-10T14:00:04.000032,15.80850812,.00011381,97.2839,29.7270,98.0241,331.8797,0,U,69753,999,255,-.21562178E-3,-.41313E-3,0
STARLINK-38048,2026-150R,2026-07-10T14:00:04.000032,15.80848659,.00010457,97.2840,29.7278,86.9101,344.1659,0,U,69754,999,255,-.20331525E-3,-.3897E-3,0
STARLINK-38006,2026-150S,2026-07-10T14:00:04.000032,15.80893523,.00009528,97.2843,29.7333,88.2597,358.4332,0,U,69755,999,255,-.42142743E-4,-.8235E-4,0
STARLINK-38036,2026-150T,2026-07-10T14:00:04.000032,15.80851549,.00010851,97.2846,29.7380,87.1743,7.1916,0,U,69756,999,255,-.26513974E-3,-.50716E-3,0
STARLINK-38058,2026-150U,2026-07-10T14:00:04.000032,15.80866450,.00010061,97.2846,29.7385,83.4060,12.3861,0,U,69757,999,255,-.28528035E-3,-.5457E-3,0
STARLINK-38066,2026-150V,2026-07-10T14:00:04.000032,15.80886912,.00011594,97.2848,29.7393,80.1278,16.5202,0,U,69758,999,255,-.13478659E-2,-.251833E-2,0
